{
  "norad_id": 65316,
  "name": "PELICAN-4",
  "history": [
    {
      "epoch": "2026-03-28T04:50:51.613728Z",
      "apogee_km": 446.9277040323677,
      "perigee_km": 441.94449663988235,
      "latitude_deg": 1.4476363376688148e-05,
      "longitude_deg": -93.69318143265845,
      "height_km": 449.7128672046733,
      "semi_major_axis_km": 6822.573100336124,
      "eccentricity": 0.0003652,
      "inclination_deg": 97.2293,
      "raan_deg": 164.6477,
      "arg_perigee_deg": 210.3305,
      "mean_anomaly_deg": 149.7731,
      "mean_motion_rev_day": 15.40566556
    },
    {
      "epoch": "2026-03-29T04:13:48.744768Z",
      "apogee_km": 446.72447919650494,
      "perigee_km": 441.6227553169201,
      "latitude_deg": -9.710199499063058e-05,
      "longitude_deg": -84.43100022738648,
      "height_km": 449.466289750763,
      "semi_major_axis_km": 6822.310617256712,
      "eccentricity": 0.0003739,
      "inclination_deg": 97.2289,
      "raan_deg": 165.6082,
      "arg_perigee_deg": 211.8762,
      "mean_anomaly_deg": 148.2258,
      "mean_motion_rev_day": 15.40655465
    },
    {
      "epoch": "2026-03-29T04:13:48.745632Z",
      "apogee_km": 446.72454741961064,
      "perigee_km": 441.6226870938144,
      "latitude_deg": 0.00010312494991957334,
      "longitude_deg": -84.43102909349709,
      "height_km": 449.4663241364276,
      "semi_major_axis_km": 6822.310617256712,
      "eccentricity": 0.00037391,
      "inclination_deg": 97.2289,
      "raan_deg": 165.6082,
      "arg_perigee_deg": 211.8763,
      "mean_anomaly_deg": 148.2259,
      "mean_motion_rev_day": 15.40655465
    },
    {
      "epoch": "2026-03-30T11:24:27.757728Z",
      "apogee_km": 446.8755356239526,
      "perigee_km": 441.7503747686096,
      "latitude_deg": 5.5004112212605436e-05,
      "longitude_deg": 167.91091298212183,
      "height_km": 449.70584572518044,
      "semi_major_axis_km": 6822.449955196281,
      "eccentricity": 0.00037561,
      "inclination_deg": 97.2255,
      "raan_deg": 166.8931,
      "arg_perigee_deg": 207.809,
      "mean_anomaly_deg": 152.2957,
      "mean_motion_rev_day": 15.40608267
    },
    {
      "epoch": "2026-03-31T10:47:23.916768Z",
      "apogee_km": 447.1076581871357,
      "perigee_km": 441.52825452382694,
      "latitude_deg": -5.256889548183987e-05,
      "longitude_deg": 177.18215622823627,
      "height_km": 449.89547247132276,
      "semi_major_axis_km": 6822.454956355481,
      "eccentricity": 0.0004089,
      "inclination_deg": 97.231,
      "raan_deg": 167.8586,
      "arg_perigee_deg": 208.5229,
      "mean_anomaly_deg": 151.5794,
      "mean_motion_rev_day": 15.40606573
    },
    {
      "epoch": "2026-03-31T10:47:23.917632Z",
      "apogee_km": 447.10786286078473,
      "perigee_km": 441.52804985017883,
      "latitude_deg": -5.094880055152337e-05,
      "longitude_deg": 177.1822524139622,
      "height_km": 449.8956523451976,
      "semi_major_axis_km": 6822.454956355481,
      "eccentricity": 0.00040893,
      "inclination_deg": 97.231,
      "raan_deg": 167.8587,
      "arg_perigee_deg": 208.5229,
      "mean_anomaly_deg": 151.5794,
      "mean_motion_rev_day": 15.40606573
    },
    {
      "epoch": "2026-04-01T03:56:15.328320Z",
      "apogee_km": 447.2343334751904,
      "perigee_km": 441.518431763232,
      "latitude_deg": -3.268005713874997e-05,
      "longitude_deg": -80.03098760437854,
      "height_km": 450.0784885776141,
      "semi_major_axis_km": 6822.5133826192105,
      "eccentricity": 0.0004189,
      "inclination_deg": 97.2281,
      "raan_deg": 168.5639,
      "arg_perigee_deg": 205.6746,
      "mean_anomaly_deg": 154.4293,
      "mean_motion_rev_day": 15.40586783
    }
  ]
}